[{"OBJECT_NAME":"NETSAT-1","OBJECT_ID":"2020-068W","EPOCH":"2026-03-09T22:42:38.711232","MEAN_MOTION":15.32042482,"ECCENTRICITY":0.00057337,"INCLINATION":97.8751,"RA_OF_ASC_NODE":63.2583,"ARG_OF_PERICENTER":18.5877,"MEAN_ANOMALY":341.5572,"EPHEMERIS_TYPE":0,"CLASSIFICATION_TYPE":"U","NORAD_CAT_ID":46506,"ELEMENT_SET_NO":999,"REV_AT_EPOCH":30009,"BSTAR":0.00059222329,"MEAN_MOTION_DOT":0.00018269,"MEAN_MOTION_DDOT":0},{"OBJECT_NAME":"STARLINK-35751","OBJECT_ID":"2025-244C","EPOCH":"2026-03-09T18:24:28.018080","MEAN_MOTION":15.30206623,"ECCENTRICITY":7.717e-5,"INCLINATION":53.16,"RA_OF_ASC_NODE":229.3915,"ARG_OF_PERICENTER":106.0153,"MEAN_ANOMALY":254.0933,"EPHEMERIS_TYPE":0,"CLASSIFICATION_TYPE":"U","NORAD_CAT_ID":66208,"ELEMENT_SET_NO":999,"REV_AT_EPOCH":2167,"BSTAR":0.00085508781,"MEAN_MOTION_DOT":0.00025057,"MEAN_MOTION_DDOT":0}]
